start=new Date('2023-04-20T00:00:00.000Z').valueOf();
sats=[{"OBJECT_NAME":"STARLINK-5311","BSTAR":"-0.00001043900000","DECAY_DATE":null,"INCLINATION":"69.9967","PERIOD":"91.726","CLASSIFICATION_TYPE":"U","OBJECT_ID":"2023-010V","MEAN_ELEMENT_THEORY":"SGP4","ECCENTRICITY":"0.00033650","TIME_SYSTEM":"UTC","REV_AT_EPOCH":"1495","FILE":"3890520","EPOCH":"2023-04-19T14:12:43.354080","RA_OF_ASC_NODE":"175.7073","REF_FRAME":"TEME","ARG_OF_PERICENTER":"271.4636","COUNTRY_CODE":"US","OBJECT_TYPE":"PAYLOAD","GP_ID":"230398591","TLE_LINE1":"1 55288U 23010V   23109.59216845 -.00001466  00000-0 -10439-4 0  9999","NORAD_CAT_ID":"55288","MEAN_ANOMALY":"88.6174","ELEMENT_SET_NO":"999","SEMIMAJOR_AXIS":"6737.322","CENTER_NAME":"EARTH","MEAN_MOTION":"15.69899245","SITE":"AFWTR","RCS_SIZE":"LARGE","EPHEMERIS_TYPE":"0","PERIAPSIS":"356.920","MEAN_MOTION_DDOT":"0.0000000000000","MEAN_MOTION_DOT":"-0.00001466","TLE_LINE2":"2 55288  69.9967 175.7073 0003365 271.4636  88.6174 15.69899245 14953","APOAPSIS":"361.454","LAUNCH_DATE":"2023-01-19"},{"EPOCH":"2023-04-19T14:13:27.881184","FILE":"3890520","REF_FRAME":"TEME","COUNTRY_CODE":"US","ARG_OF_PERICENTER":"260.6188","RA_OF_ASC_NODE":"175.7132","OBJECT_NAME":"STARLINK-5320","BSTAR":"0.00001444600000","ECCENTRICITY":"0.00026560","TIME_SYSTEM":"UTC","MEAN_ELEMENT_THEORY":"SGP4","REV_AT_EPOCH":"1495","DECAY_DATE":null,"INCLINATION":"69.9993","CLASSIFICATION_TYPE":"U","OBJECT_ID":"2023-010W","PERIOD":"91.725","PERIAPSIS":"357.361","RCS_SIZE":"LARGE","EPHEMERIS_TYPE":"0","MEAN_MOTION":"15.69912184","SITE":"AFWTR","APOAPSIS":"360.940","LAUNCH_DATE":"2023-01-19","MEAN_MOTION_DDOT":"0.0000000000000","TLE_LINE2":"2 55289  69.9993 175.7132 0002656 260.6188  99.4708 15.69912184 14954","MEAN_MOTION_DOT":"0.00001524","NORAD_CAT_ID":"55289","GP_ID":"230397339","TLE_LINE1":"1 55289U 23010W   23109.59268381  .00001524  00000-0  14446-4 0  9997","OBJECT_TYPE":"PAYLOAD","CENTER_NAME":"EARTH","ELEMENT_SET_NO":"999","MEAN_ANOMALY":"99.4708","SEMIMAJOR_AXIS":"6737.285"},{"MEAN_ELEMENT_THEORY":"SGP4","TIME_SYSTEM":"UTC","ECCENTRICITY":"0.00032900","REV_AT_EPOCH":"1495","INCLINATION":"69.9995","DECAY_DATE":null,"PERIOD":"91.726","CLASSIFICATION_TYPE":"U","OBJECT_ID":"2023-010X","OBJECT_NAME":"STARLINK-5266","BSTAR":"-0.00001330900000","REF_FRAME":"TEME","ARG_OF_PERICENTER":"265.3141","COUNTRY_CODE":"US","RA_OF_ASC_NODE":"175.7120","FILE":"3890520","EPOCH":"2023-04-19T14:13:11.246592","CENTER_NAME":"EARTH","MEAN_ANOMALY":"94.7679","ELEMENT_SET_NO":"999","SEMIMAJOR_AXIS":"6737.350","NORAD_CAT_ID":"55290","OBJECT_TYPE":"PAYLOAD","TLE_LINE1":"1 55290U 23010X   23109.59249128 -.00001810  00000-0 -13309-4 0  9994","GP_ID":"230397089","APOAPSIS":"361.431","LAUNCH_DATE":"2023-01-19","MEAN_MOTION_DDOT":"0.0000000000000","MEAN_MOTION_DOT":"-0.00001810","TLE_LINE2":"2 55290  69.9995 175.7120 0003290 265.3141  94.7679 15.69889605 14957","EPHEMERIS_TYPE":"0","RCS_SIZE":"LARGE","PERIAPSIS":"356.998","MEAN_MOTION":"15.69889605","SITE":"AFWTR"},{"APOAPSIS":"361.375","LAUNCH_DATE":"2023-01-19","MEAN_MOTION_DDOT":"0.0000000000000","TLE_LINE2":"2 55291  69.9969 175.7110 0003319 261.4520  98.6299 15.69916307 14959","MEAN_MOTION_DOT":"0.00000602","PERIAPSIS":"356.902","EPHEMERIS_TYPE":"0","RCS_SIZE":"LARGE","MEAN_MOTION":"15.69916307","SITE":"AFWTR","CENTER_NAME":"EARTH","ELEMENT_SET_NO":"999","MEAN_ANOMALY":"98.6299","SEMIMAJOR_AXIS":"6737.273","NORAD_CAT_ID":"55291","GP_ID":"230398341","TLE_LINE1":"1 55291U 23010Y   23109.59257528  .00000602  00000-0  67798-5 0  9996","OBJECT_TYPE":"PAYLOAD","REF_FRAME":"TEME","ARG_OF_PERICENTER":"261.4520","COUNTRY_CODE":"US","RA_OF_ASC_NODE":"175.7110","EPOCH":"2023-04-19T14:13:18.504192","FILE":"3890520","ECCENTRICITY":"0.00033190","TIME_SYSTEM":"UTC","MEAN_ELEMENT_THEORY":"SGP4","REV_AT_EPOCH":"1495","DECAY_DATE":null,"INCLINATION":"69.9969","OBJECT_ID":"2023-010Y","CLASSIFICATION_TYPE":"U","PERIOD":"91.725","OBJECT_NAME":"STARLINK-5327","BSTAR":"0.00000677980000"},{"OBJECT_NAME":"STARLINK-5325","BSTAR":"-0.00000362480000","MEAN_ELEMENT_THEORY":"SGP4","TIME_SYSTEM":"UTC","ECCENTRICITY":"0.00028930","REV_AT_EPOCH":"1495","DECAY_DATE":null,"INCLINATION":"69.9970","PERIOD":"91.725","CLASSIFICATION_TYPE":"U","OBJECT_ID":"2023-010Z","FILE":"3890520","EPOCH":"2023-04-19T14:12:33.802560","REF_FRAME":"TEME","COUNTRY_CODE":"US","ARG_OF_PERICENTER":"284.8280","RA_OF_ASC_NODE":"175.7070","NORAD_CAT_ID":"55292","OBJECT_TYPE":"PAYLOAD","GP_ID":"230398091","TLE_LINE1":"1 55292U 23010Z   23109.59205790 -.00000648  00000-0 -36248-5 0  9999","CENTER_NAME":"EARTH","MEAN_ANOMALY":"75.2595","ELEMENT_SET_NO":"999","SEMIMAJOR_AXIS":"6737.291","RCS_SIZE":"LARGE","EPHEMERIS_TYPE":"0","PERIAPSIS":"357.207","MEAN_MOTION":"15.69910177","SITE":"AFWTR","APOAPSIS":"361.105","LAUNCH_DATE":"2023-01-19","MEAN_MOTION_DDOT":"0.0000000000000","MEAN_MOTION_DOT":"-0.00000648","TLE_LINE2":"2 55292  69.9970 175.7070 0002893 284.8280  75.2595 15.69910177 14954"},{"OBJECT_NAME":"STARLINK-5287","BSTAR":"0.00000114640000","MEAN_ELEMENT_THEORY":"SGP4","ECCENTRICITY":"0.00029940","TIME_SYSTEM":"UTC","REV_AT_EPOCH":"1496","DECAY_DATE":null,"INCLINATION":"69.9991","PERIOD":"91.726","CLASSIFICATION_TYPE":"U","OBJECT_ID":"2023-010AA","FILE":"3890520","EPOCH":"2023-04-19T15:44:37.689792","REF_FRAME":"TEME","COUNTRY_CODE":"US","ARG_OF_PERICENTER":"276.8979","RA_OF_ASC_NODE":"175.5291","NORAD_CAT_ID":"55293","OBJECT_TYPE":"PAYLOAD","GP_ID":"230396839","TLE_LINE1":"1 55293U 23010AA  23109.65599178 -.00000075  00000-0  11464-5 0  9999","CENTER_NAME":"EARTH","MEAN_ANOMALY":"83.1876","ELEMENT_SET_NO":"999","SEMIMAJOR_AXIS":"6737.340","RCS_SIZE":"LARGE","EPHEMERIS_TYPE":"0","PERIAPSIS":"357.188","MEAN_MOTION":"15.69893106","SITE":"AFWTR","APOAPSIS":"361.222","LAUNCH_DATE":"2023-01-19","MEAN_MOTION_DDOT":"0.0000000000000","TLE_LINE2":"2 55293  69.9991 175.5291 0002994 276.8979  83.1876 15.69893106 14962","MEAN_MOTION_DOT":"-0.00000075"},{"MEAN_MOTION":"14.98333143","SITE":"AFWTR","EPHEMERIS_TYPE":"0","RCS_SIZE":"LARGE","PERIAPSIS":"570.104","MEAN_MOTION_DDOT":"0.0000000000000","MEAN_MOTION_DOT":"0.00000999","TLE_LINE2":"2 55294  70.0001 184.4724 0002798 267.3971  92.6867 14.98333143 14749","APOAPSIS":"573.993","LAUNCH_DATE":"2023-01-19","OBJECT_TYPE":"PAYLOAD","GP_ID":"230397590","TLE_LINE1":"1 55294U 23010AB  23109.64691425  .00000999  00000-0  91492-4 0  9999","NORAD_CAT_ID":"55294","MEAN_ANOMALY":"92.6867","ELEMENT_SET_NO":"999","SEMIMAJOR_AXIS":"6950.183","CENTER_NAME":"EARTH","FILE":"3890520","EPOCH":"2023-04-19T15:31:33.391200","RA_OF_ASC_NODE":"184.4724","REF_FRAME":"TEME","COUNTRY_CODE":"US","ARG_OF_PERICENTER":"267.3971","OBJECT_NAME":"STARLINK-5286","BSTAR":"0.00009149200000","INCLINATION":"70.0001","DECAY_DATE":null,"PERIOD":"96.107","OBJECT_ID":"2023-010AB","CLASSIFICATION_TYPE":"U","MEAN_ELEMENT_THEORY":"SGP4","TIME_SYSTEM":"UTC","ECCENTRICITY":"0.00027980","REV_AT_EPOCH":"1474"},{"COUNTRY_CODE":"US","ARG_OF_PERICENTER":"275.7240","REF_FRAME":"TEME","RA_OF_ASC_NODE":"184.8362","FILE":"3890520","EPOCH":"2023-04-19T15:15:06.053472","REV_AT_EPOCH":"1474","MEAN_ELEMENT_THEORY":"SGP4","ECCENTRICITY":"0.00028300","TIME_SYSTEM":"UTC","PERIOD":"96.055","OBJECT_ID":"2023-010AC","CLASSIFICATION_TYPE":"U","DECAY_DATE":null,"INCLINATION":"69.9997","BSTAR":"0.00010286000000","OBJECT_NAME":"STARLINK-5293","LAUNCH_DATE":"2023-01-19","APOAPSIS":"571.512","MEAN_MOTION_DOT":"0.00001160","TLE_LINE2":"2 55295  69.9997 184.8362 0002830 275.7240  84.3597 14.99142689 14744","MEAN_MOTION_DDOT":"0.0000000000000","RCS_SIZE":"LARGE","EPHEMERIS_TYPE":"0","PERIAPSIS":"567.580","SITE":"AFWTR","MEAN_MOTION":"14.99142689","CENTER_NAME":"EARTH","SEMIMAJOR_AXIS":"6947.681","MEAN_ANOMALY":"84.3597","ELEMENT_SET_NO":"999","NORAD_CAT_ID":"55295","OBJECT_TYPE":"PAYLOAD","GP_ID":"230397841","TLE_LINE1":"1 55295U 23010AC  23109.63548673  .00001160  00000-0  10286-3 0  9997"},{"PERIOD":"91.725","OBJECT_ID":"2023-010AD","CLASSIFICATION_TYPE":"U","INCLINATION":"69.9982","DECAY_DATE":null,"REV_AT_EPOCH":"1583","MEAN_ELEMENT_THEORY":"SGP4","TIME_SYSTEM":"UTC","ECCENTRICITY":"0.00036140","BSTAR":"0.00001518100000","OBJECT_NAME":"STARLINK-5285","RA_OF_ASC_NODE":"175.7073","ARG_OF_PERICENTER":"275.7617","COUNTRY_CODE":"US","REF_FRAME":"TEME","FILE":"3890520","EPOCH":"2023-04-19T14:11:56.157216","SEMIMAJOR_AXIS":"6737.268","MEAN_ANOMALY":"84.3167","ELEMENT_SET_NO":"999","CENTER_NAME":"EARTH","OBJECT_TYPE":"PAYLOAD","TLE_LINE1":"1 55296U 23010AD  23109.59162219  .00001612  00000-0  15181-4 0  9993","GP_ID":"230398592","NORAD_CAT_ID":"55296","MEAN_MOTION_DOT":"0.00001612","TLE_LINE2":"2 55296  69.9982 175.7073 0003614 275.7617  84.3167 15.69918265 15839","MEAN_MOTION_DDOT":"0.0000000000000","LAUNCH_DATE":"2023-01-19","APOAPSIS":"361.568","SITE":"AFWTR","MEAN_MOTION":"15.69918265","RCS_SIZE":"LARGE","EPHEMERIS_TYPE":"0","PERIAPSIS":"356.698"},{"PERIOD":"91.724","CLASSIFICATION_TYPE":"U","OBJECT_ID":"2023-010AE","DECAY_DATE":null,"INCLINATION":"69.9975","REV_AT_EPOCH":"1495","MEAN_ELEMENT_THEORY":"SGP4","ECCENTRICITY":"0.00028380","TIME_SYSTEM":"UTC","BSTAR":"-0.00003728800000","OBJECT_NAME":"STARLINK-5284","RA_OF_ASC_NODE":"175.7078","COUNTRY_CODE":"US","ARG_OF_PERICENTER":"293.2378","REF_FRAME":"TEME","FILE":"3890520","EPOCH":"2023-04-19T14:12:24.491232","SEMIMAJOR_AXIS":"6737.259","MEAN_ANOMALY":"66.8519","ELEMENT_SET_NO":"999","CENTER_NAME":"EARTH","OBJECT_TYPE":"PAYLOAD","GP_ID":"230397340","TLE_LINE1":"1 55297U 23010AE  23109.59195013 -.00004693  00000-0 -37288-4 0  9998","NORAD_CAT_ID":"55297","MEAN_MOTION_DOT":"-0.00004693","TLE_LINE2":"2 55297  69.9975 175.7078 0002838 293.2378  66.8519 15.69921476 14959","MEAN_MOTION_DDOT":"0.0000000000000","LAUNCH_DATE":"2023-01-19","APOAPSIS":"361.036","SITE":"AFWTR","MEAN_MOTION":"15.69921476","EPHEMERIS_TYPE":"0","RCS_SIZE":"LARGE","PERIAPSIS":"357.212"}];
